GLOBAL-2                
1 43812U 18099BG  26186.11477668  .00005736  00000+0  36854-3 0  9997
2 43812  97.3543 221.8826 0007519  93.8969 266.3120 15.08785303414612
GLOBAL-4                
1 44499U 19054E   26185.56493865  .00106521  00000+0  10028-2 0  9994
2 44499  45.0044 136.0113 0003934 113.4500 246.6811 15.66079115383088
GLOBAL-9                
1 47971U 21023G   26186.33452262  .00029953  00000+0  57876-3 0  9999
2 47971  44.9803 148.4761 0002644  85.4093 274.7100 15.47300235297755
GLOBAL-14               
1 49469U 21106A   26186.37363316  .00031841  00000+0  52591-3 0  9998
2 49469  42.0027 182.9281 0015814 155.9549 204.2037 15.51468210260950
GLOBAL-12               
1 49772U 21115BA  26186.40112846  .00049157  00000+0  72737-3 0  9992
2 49772  53.1967 316.8910 0002640  70.6151 289.5146 15.54828689258738
GLOBAL-13               
1 49773U 21115BB  26186.02245189  .00034676  00000+0  68606-3 0  9998
2 49773  53.1979 329.7615 0001783 147.8913 212.2204 15.46797722258526
GLOBAL-17               
1 49949U 21120A   26186.35606643  .00042589  00000+0  65626-3 0  9992
2 49949  41.9952 300.9552 0014360  16.2142 343.9159 15.53308883257722
GLOBAL-16               
1 49950U 21120B   26186.39445807  .00030967  00000+0  51908-3 0  9996
2 49950  41.9960 304.8042 0012617   5.9631 354.1361 15.51117544257674
GLOBAL-18               
1 52196U 22034B   26186.34880341  .00027856  00000+0  55069-3 0  9993
2 52196  52.9805 169.7980 0004088 355.9532   4.1439 15.46924603239775
GLOBAL-19               
1 55982U 23041B   26186.21384402  .00023868  00000+0  61861-3 0  9997
2 55982  42.0015  96.7320 0007875 149.0388 211.0917 15.38492085184706
GLOBAL-5                
1 55983U 23041C   26186.11676910  .00023221  00000+0  60208-3 0  9992
2 55983  42.0004  96.8265 0006772 142.1021 218.0296 15.38499402184692
