{"fetched_at":"2026-07-06T08:47:02.099Z","source":"https://celestrak.org/NORAD/elements/gp.php?NAME=GLOBAL&FORMAT=JSON","constellation":"blacksky-gen2","records":[{"OBJECT_NAME":"GLOBAL-2","OBJECT_ID":"2018-099BG","EPOCH":"2026-07-05T02:45:16.705152","CLASSIFICATION_TYPE":"U","MEAN_MOTION":15.08785303,"ECCENTRICITY":0.0007519,"INCLINATION":97.3543,"RA_OF_ASC_NODE":221.8826,"ARG_OF_PERICENTER":93.8969,"MEAN_ANOMALY":266.312,"EPHEMERIS_TYPE":0,"NORAD_CAT_ID":43812,"ELEMENT_SET_NO":999,"REV_AT_EPOCH":41461,"BSTAR":0.00036854,"MEAN_MOTION_DOT":0.00005736,"MEAN_MOTION_DDOT":0},{"OBJECT_NAME":"GLOBAL-4","OBJECT_ID":"2019-054E","EPOCH":"2026-07-04T13:33:30.699360","CLASSIFICATION_TYPE":"U","MEAN_MOTION":15.66079115,"ECCENTRICITY":0.00039348,"INCLINATION":45.0044,"RA_OF_ASC_NODE":136.0113,"ARG_OF_PERICENTER":113.45,"MEAN_ANOMALY":246.6811,"EPHEMERIS_TYPE":0,"NORAD_CAT_ID":44499,"ELEMENT_SET_NO":999,"REV_AT_EPOCH":38308,"BSTAR":0.0010028234,"MEAN_MOTION_DOT":0.00106521,"MEAN_MOTION_DDOT":0},{"OBJECT_NAME":"GLOBAL-9","OBJECT_ID":"2021-023G","EPOCH":"2026-07-05T08:01:42.754368","CLASSIFICATION_TYPE":"U","MEAN_MOTION":15.47300235,"ECCENTRICITY":0.0002644,"INCLINATION":44.9803,"RA_OF_ASC_NODE":148.4761,"ARG_OF_PERICENTER":85.4093,"MEAN_ANOMALY":274.71,"EPHEMERIS_TYPE":0,"NORAD_CAT_ID":47971,"ELEMENT_SET_NO":999,"REV_AT_EPOCH":29775,"BSTAR":0.00057876,"MEAN_MOTION_DOT":0.00029953,"MEAN_MOTION_DDOT":0},{"OBJECT_NAME":"GLOBAL-14","OBJECT_ID":"2021-106A","EPOCH":"2026-07-05T08:58:01.905024","CLASSIFICATION_TYPE":"U","MEAN_MOTION":15.5146821,"ECCENTRICITY":0.0015814,"INCLINATION":42.0027,"RA_OF_ASC_NODE":182.9281,"ARG_OF_PERICENTER":155.9549,"MEAN_ANOMALY":204.2037,"EPHEMERIS_TYPE":0,"NORAD_CAT_ID":49469,"ELEMENT_SET_NO":999,"REV_AT_EPOCH":26095,"BSTAR":0.00052591,"MEAN_MOTION_DOT":0.00031841,"MEAN_MOTION_DDOT":0},{"OBJECT_NAME":"GLOBAL-12","OBJECT_ID":"2021-115BA","EPOCH":"2026-07-05T09:37:37.498080","CLASSIFICATION_TYPE":"U","MEAN_MOTION":15.54828688,"ECCENTRICITY":0.0002641,"INCLINATION":53.1967,"RA_OF_ASC_NODE":316.891,"ARG_OF_PERICENTER":70.6151,"MEAN_ANOMALY":289.5146,"EPHEMERIS_TYPE":0,"NORAD_CAT_ID":49772,"ELEMENT_SET_NO":999,"REV_AT_EPOCH":25873,"BSTAR":0.00072737,"MEAN_MOTION_DOT":0.00049157,"MEAN_MOTION_DDOT":0},{"OBJECT_NAME":"GLOBAL-13","OBJECT_ID":"2021-115BB","EPOCH":"2026-07-05T00:32:19.843296","CLASSIFICATION_TYPE":"U","MEAN_MOTION":15.46797722,"ECCENTRICITY":0.0001783,"INCLINATION":53.1979,"RA_OF_ASC_NODE":329.7615,"ARG_OF_PERICENTER":147.8913,"MEAN_ANOMALY":212.2204,"EPHEMERIS_TYPE":0,"NORAD_CAT_ID":49773,"ELEMENT_SET_NO":999,"REV_AT_EPOCH":25852,"BSTAR":0.00068606,"MEAN_MOTION_DOT":0.00034676,"MEAN_MOTION_DDOT":0},{"OBJECT_NAME":"GLOBAL-17","OBJECT_ID":"2021-120A","EPOCH":"2026-07-05T08:32:44.138688","CLASSIFICATION_TYPE":"U","MEAN_MOTION":15.53308883,"ECCENTRICITY":0.001436,"INCLINATION":41.9952,"RA_OF_ASC_NODE":300.9552,"ARG_OF_PERICENTER":16.2142,"MEAN_ANOMALY":343.9159,"EPHEMERIS_TYPE":0,"NORAD_CAT_ID":49949,"ELEMENT_SET_NO":999,"REV_AT_EPOCH":25772,"BSTAR":0.00065626,"MEAN_MOTION_DOT":0.00042589,"MEAN_MOTION_DDOT":0},{"OBJECT_NAME":"GLOBAL-16","OBJECT_ID":"2021-120B","EPOCH":"2026-07-05T09:28:01.177248","CLASSIFICATION_TYPE":"U","MEAN_MOTION":15.51117544,"ECCENTRICITY":0.0012617,"INCLINATION":41.996,"RA_OF_ASC_NODE":304.8042,"ARG_OF_PERICENTER":5.9631,"MEAN_ANOMALY":354.1361,"EPHEMERIS_TYPE":0,"NORAD_CAT_ID":49950,"ELEMENT_SET_NO":999,"REV_AT_EPOCH":25767,"BSTAR":0.00051908,"MEAN_MOTION_DOT":0.00030967,"MEAN_MOTION_DDOT":0},{"OBJECT_NAME":"GLOBAL-18","OBJECT_ID":"2022-034B","EPOCH":"2026-07-05T08:22:16.613760","CLASSIFICATION_TYPE":"U","MEAN_MOTION":15.46924603,"ECCENTRICITY":0.0004088,"INCLINATION":52.9805,"RA_OF_ASC_NODE":169.798,"ARG_OF_PERICENTER":355.9532,"MEAN_ANOMALY":4.1439,"EPHEMERIS_TYPE":0,"NORAD_CAT_ID":52196,"ELEMENT_SET_NO":999,"REV_AT_EPOCH":23977,"BSTAR":0.00055069,"MEAN_MOTION_DOT":0.00027856,"MEAN_MOTION_DDOT":0},{"OBJECT_NAME":"GLOBAL-19","OBJECT_ID":"2023-041B","EPOCH":"2026-07-05T05:07:56.123328","CLASSIFICATION_TYPE":"U","MEAN_MOTION":15.38492084,"ECCENTRICITY":0.0007876,"INCLINATION":42.0015,"RA_OF_ASC_NODE":96.732,"ARG_OF_PERICENTER":149.0388,"MEAN_ANOMALY":211.0917,"EPHEMERIS_TYPE":0,"NORAD_CAT_ID":55982,"ELEMENT_SET_NO":999,"REV_AT_EPOCH":18470,"BSTAR":0.00061861,"MEAN_MOTION_DOT":0.00023868,"MEAN_MOTION_DDOT":0},{"OBJECT_NAME":"GLOBAL-5","OBJECT_ID":"2023-041C","EPOCH":"2026-07-05T02:48:08.850240","CLASSIFICATION_TYPE":"U","MEAN_MOTION":15.38499402,"ECCENTRICITY":0.0006772,"INCLINATION":42.0004,"RA_OF_ASC_NODE":96.8265,"ARG_OF_PERICENTER":142.1021,"MEAN_ANOMALY":218.0296,"EPHEMERIS_TYPE":0,"NORAD_CAT_ID":55983,"ELEMENT_SET_NO":999,"REV_AT_EPOCH":18469,"BSTAR":0.00060208,"MEAN_MOTION_DOT":0.00023221,"MEAN_MOTION_DDOT":0}]}
